{"type": "FeatureCollection", "features": [ {"type": "Feature", "properties": {"norad_id": 66589, "name": "STARLINK-35447", "group": "last-30-days", "lat": 2.1572134895006285, "lon": -18.613637729815924, "alt_km": 443.7792099311746, "timestamp": "2025-12-17T17:50:17.972678+00:00", "meta": {"OBJECT_NAME": "STARLINK-35447", "OBJECT_ID": "2025-270B", "EPOCH": "2025-12-17T08:00:04.999680", "MEAN_MOTION": 15.40690399, "ECCENTRICITY": 0.00014464, "INCLINATION": 42.999, "RA_OF_ASC_NODE": 166.0657, "ARG_OF_PERICENTER": 283.4491, "MEAN_ANOMALY": 137.2366, "EPHEMERIS_TYPE": 0, "CLASSIFICATION_TYPE": "U", "NORAD_CAT_ID": 66589, "ELEMENT_SET_NO": 999, "REV_AT_EPOCH": 524, "BSTAR": 0.0010569376, "MEAN_MOTION_DOT": 0.00044089, "MEAN_MOTION_DDOT": 0}, "tle": {"line1": "1 66589U 25270B   25351.33339120  .00044089  00000+0  10569-2 0  9997", "line2": "2 66589  42.9990 166.0657 0001446 283.4491 137.2366 15.40690399  5241"}}, "geometry": {"type": "Point", "coordinates": [-18.613637729815924, 2.1572134895006285]}}, {"type": "Feature", "properties": {"norad_id": 66590, "name": "STARLINK-35429", "group": "last-30-days", "lat": -42.93570984755343, "lon": 76.58521163917118, "alt_km": 416.1735560161769, "timestamp": "2025-12-17T17:50:17.972689+00:00", "meta": {"OBJECT_NAME": "STARLINK-35429", "OBJECT_ID": "2025-270C", "EPOCH": "2025-12-16T12:50:27.251232", "MEAN_MOTION": 15.50425515, "ECCENTRICITY": 0.00032679, "INCLINATION": 42.9984, "RA_OF_ASC_NODE": 170.5388, "ARG_OF_PERICENTER": 251.7306, "MEAN_ANOMALY": 108.3198, "EPHEMERIS_TYPE": 0, "CLASSIFICATION_TYPE": "U", "NORAD_CAT_ID": 66590, "ELEMENT_SET_NO": 999, "REV_AT_EPOCH": 504, "BSTAR": 0.0012711254, "MEAN_MOTION_DOT": 0.00074543, "MEAN_MOTION_DDOT": 0}, "tle": {"line1": "1 66590U 25270C   25350.53503763  .00074543  00000+0  12711-2 0  9995", "line2": "2 66590  42.9984 170.5388 0003267 251.7306 108.3198 15.50425515  5040"}}, "geometry": {"type": "Point", "coordinates": [76.58521163917118, -42.93570984755343]}}, {"type": "Feature", "properties": {"norad_id": 66591, "name": "STARLINK-36058", "group": "last-30-days", "lat": -42.61415703603638, "lon": 82.58380810254796, "alt_km": 416.3394506030281, "timestamp": "2025-12-17T17:50:17.972699+00:00", "meta": {"OBJECT_NAME": "STARLINK-36058", "OBJECT_ID": "2025-270D", "EPOCH": "2025-12-16T23:38:43.243008", "MEAN_MOTION": 15.50580298, "ECCENTRICITY": 0.00026057, "INCLINATION": 42.9983, "RA_OF_ASC_NODE": 167.8953, "ARG_OF_PERICENTER": 271.1045, "MEAN_ANOMALY": 88.9517, "EPHEMERIS_TYPE": 0, "CLASSIFICATION_TYPE": "U", "NORAD_CAT_ID": 66591, "ELEMENT_SET_NO": 999, "REV_AT_EPOCH": 500, "BSTAR": 0.0010869206, "MEAN_MOTION_DOT": 0.00063953, "MEAN_MOTION_DDOT": 0}, "tle": {"line1": "1 66591U 25270D   25350.98522272  .00063953  00000+0  10869-2 0  9996", "line2": "2 66591  42.9983 167.8953 0002605 271.1045  88.9517 15.50580298  5002"}}, "geometry": {"type": "Point", "coordinates": [82.58380810254796, -42.61415703603638]}}, {"type": "Feature", "properties": {"norad_id": 66592, "name": "STARLINK-36066", "group": "last-30-days", "lat": 32.94013932142508, "lon": -60.230193285776075, "alt_km": 439.6056795507957, "timestamp": "2025-12-17T17:50:17.972709+00:00", "meta": {"OBJECT_NAME": "STARLINK-36066", "OBJECT_ID": "2025-270E", "EPOCH": "2025-12-17T08:00:04.999680", "MEAN_MOTION": 15.40666931, "ECCENTRICITY": 0.00016498, "INCLINATION": 42.999, "RA_OF_ASC_NODE": 166.1858, "ARG_OF_PERICENTER": 261.1368, "MEAN_ANOMALY": 109.8783, "EPHEMERIS_TYPE": 0, "CLASSIFICATION_TYPE": "U", "NORAD_CAT_ID": 66592, "ELEMENT_SET_NO": 999, "REV_AT_EPOCH": 503, "BSTAR": 0.001076523, "MEAN_MOTION_DOT": 0.00044881, "MEAN_MOTION_DDOT": 0}, "tle": {"line1": "1 66592U 25270E   25351.33339120  .00044881  00000+0  10765-2 0  9999", "line2": "2 66592  42.9990 166.1858 0001649 261.1368 109.8783 15.40666931  5030"}}, "geometry": {"type": "Point", "coordinates": [-60.230193285776075, 32.94013932142508]}}, {"type": "Feature", "properties": {"norad_id": 66593, "name": "STARLINK-36031", "group": "last-30-days", "lat": -22.53568217079468, "lon": 10.054484408408378, "alt_km": 445.4761473301678, "timestamp": "2025-12-17T17:50:17.972722+00:00", "meta": {"OBJECT_NAME": "STARLINK-36031", "OBJECT_ID": "2025-270F", "EPOCH": "2025-12-17T08:00:04.999680", "MEAN_MOTION": 15.40670219, "ECCENTRICITY": 0.00016751, "INCLINATION": 42.999, "RA_OF_ASC_NODE": 165.9742, "ARG_OF_PERICENTER": 262.162, "MEAN_ANOMALY": 195.9379, "EPHEMERIS_TYPE": 0, "CLASSIFICATION_TYPE": "U", "NORAD_CAT_ID": 66593, "ELEMENT_SET_NO": 999, "REV_AT_EPOCH": 513, "BSTAR": 0.0010073481, "MEAN_MOTION_DOT": 0.00041966, "MEAN_MOTION_DDOT": 0}, "tle": {"line1": "1 66593U 25270F   25351.33339120  .00041966  00000+0  10073-2 0  9993", "line2": "2 66593  42.9990 165.9742 0001675 262.1620 195.9379 15.40670219  5133"}}, "geometry": {"type": "Point", "coordinates": [10.054484408408378, -22.53568217079468]}}, {"type": "Feature", "properties": {"norad_id": 66594, "name": "STARLINK-36032", "group": "last-30-days", "lat": -41.73784883049618, "lon": 90.2228890242419, "alt_km": 417.10992233939214, "timestamp": "2025-12-17T17:50:17.972732+00:00", "meta": {"OBJECT_NAME": "STARLINK-36032", "OBJECT_ID": "2025-270G", "EPOCH": "2025-12-16T23:37:14.985408", "MEAN_MOTION": 15.50586116, "ECCENTRICITY": 0.00013733, "INCLINATION": 42.9989, "RA_OF_ASC_NODE": 167.888, "ARG_OF_PERICENTER": 282.5026, "MEAN_ANOMALY": 77.5681, "EPHEMERIS_TYPE": 0, "CLASSIFICATION_TYPE": "U", "NORAD_CAT_ID": 66594, "ELEMENT_SET_NO": 999, "REV_AT_EPOCH": 481, "BSTAR": 0.0011476519, "MEAN_MOTION_DOT": 0.00067586, "MEAN_MOTION_DDOT": 0}, "tle": {"line1": "1 66594U 25270G   25350.98420122  .00067586  00000+0  11477-2 0  9992", "line2": "2 66594  42.9989 167.8880 0001373 282.5026  77.5681 15.50586116  4815"}}, "geometry": {"type": "Point", "coordinates": [90.2228890242419, -41.73784883049618]}}, {"type": "Feature", "properties": {"norad_id": 66595, "name": "STARLINK-35711", "group": "last-30-days", "lat": -41.32854736690633, "lon": 92.74846401654395, "alt_km": 417.134657468825, "timestamp": "2025-12-17T17:50:17.972744+00:00", "meta": {"OBJECT_NAME": "STARLINK-35711", "OBJECT_ID": "2025-270H", "EPOCH": "2025-12-16T23:36:45.211104", "MEAN_MOTION": 15.50611347, "ECCENTRICITY": 0.00013989, "INCLINATION": 42.9989, "RA_OF_ASC_NODE": 167.8844, "ARG_OF_PERICENTER": 268.6536, "MEAN_ANOMALY": 91.4164, "EPHEMERIS_TYPE": 0, "CLASSIFICATION_TYPE": "U", "NORAD_CAT_ID": 66595, "ELEMENT_SET_NO": 999, "REV_AT_EPOCH": 511, "BSTAR": 0.00067771153, "MEAN_MOTION_DOT": 0.00039664, "MEAN_MOTION_DDOT": 0}, "tle": {"line1": "1 66595U 25270H   25350.98385661  .00039664  00000+0  67771-3 0  9996", "line2": "2 66595  42.9989 167.8844 0001398 268.6536  91.4164 15.50611347  5114"}}, "geometry": {"type": "Point", "coordinates": [92.74846401654395, -41.32854736690633]}}, {"type": "Feature", "properties": {"norad_id": 66596, "name": "STARLINK-35811", "group": "last-30-days", "lat": 41.76306053581623, "lon": -89.50953030816584, "alt_km": 438.6814634164539, "timestamp": "2025-12-17T17:50:17.972755+00:00", "meta": {"OBJECT_NAME": "STARLINK-35811", "OBJECT_ID": "2025-270J", "EPOCH": "2025-12-17T04:56:58.971840", "MEAN_MOTION": 15.40721289, "ECCENTRICITY": 0.00021293, "INCLINATION": 42.9988, "RA_OF_ASC_NODE": 166.9785, "ARG_OF_PERICENTER": 270.0443, "MEAN_ANOMALY": 90.017, "EPHEMERIS_TYPE": 0, "CLASSIFICATION_TYPE": "U", "NORAD_CAT_ID": 66596, "ELEMENT_SET_NO": 999, "REV_AT_EPOCH": 514, "BSTAR": 0.00071812816, "MEAN_MOTION_DOT": 0.00029834, "MEAN_MOTION_DDOT": 0}, "tle": {"line1": "1 66596U 25270J   25351.20623810  .00029834  00000+0  71813-3 0  9994", "line2": "2 66596  42.9988 166.9785 0002129 270.0443  90.0170 15.40721289  5146"}}, "geometry": {"type": "Point", "coordinates": [-89.50953030816584, 41.76306053581623]}}, {"type": "Feature", "properties": {"norad_id": 66597, "name": "STARLINK-35820", "group": "last-30-days", "lat": 18.667197415848864, "lon": -37.49585673001638, "alt_km": 441.70175493258466, "timestamp": "2025-12-17T17:50:17.972768+00:00", "meta": {"OBJECT_NAME": "STARLINK-35820", "OBJECT_ID": "2025-270K", "EPOCH": "2025-12-17T08:00:04.999680", "MEAN_MOTION": 15.40670973, "ECCENTRICITY": 0.00017495, "INCLINATION": 42.9991, "RA_OF_ASC_NODE": 166.1242, "ARG_OF_PERICENTER": 270.9726, "MEAN_ANOMALY": 124.9195, "EPHEMERIS_TYPE": 0, "CLASSIFICATION_TYPE": "U", "NORAD_CAT_ID": 66597, "ELEMENT_SET_NO": 999, "REV_AT_EPOCH": 524, "BSTAR": 0.0010323841, "MEAN_MOTION_DOT": 0.00043024, "MEAN_MOTION_DDOT": 0}, "tle": {"line1": "1 66597U 25270K   25351.33339120  .00043024  00000+0  10324-2 0  9993", "line2": "2 66597  42.9991 166.1242 0001749 270.9726 124.9195 15.40670973  5249"}}, "geometry": {"type": "Point", "coordinates": [-37.49585673001638, 18.667197415848864]}}, {"type": "Feature", "properties": {"norad_id": 66598, "name": "STARLINK-35981", "group": "last-30-days", "lat": -39.26979368347276, "lon": 102.08316383282413, "alt_km": 416.0501864153239, "timestamp": "2025-12-17T17:50:17.972779+00:00", "meta": {"OBJECT_NAME": "STARLINK-35981", "OBJECT_ID": "2025-270L", "EPOCH": "2025-12-15T05:50:49.994016", "MEAN_MOTION": 15.50578636, "ECCENTRICITY": 0.00015186, "INCLINATION": 42.999, "RA_OF_ASC_NODE": 178.0473, "ARG_OF_PERICENTER": 290.6463, "MEAN_ANOMALY": 69.4235, "EPHEMERIS_TYPE": 0, "CLASSIFICATION_TYPE": "U", "NORAD_CAT_ID": 66598, "ELEMENT_SET_NO": 999, "REV_AT_EPOCH": 457, "BSTAR": 0.001433442, "MEAN_MOTION_DOT": 0.00084665, "MEAN_MOTION_DDOT": 0}, "tle": {"line1": "1 66598U 25270L   25349.24363419  .00084665  00000+0  14334-2 0  9990", "line2": "2 66598  42.9990 178.0473 0001518 290.6463  69.4235 15.50578636  4575"}}, "geometry": {"type": "Point", "coordinates": [102.08316383282413, -39.26979368347276]}}]}